[{"OBJECT_NAME":"STARLINK-5359","OBJECT_ID":"2022-177AW","EPOCH":"2026-03-09T04:46:35.333184","MEAN_MOTION":15.02537147,"ECCENTRICITY":0.00013428,"INCLINATION":43.0015,"RA_OF_ASC_NODE":122.7958,"ARG_OF_PERICENTER":281.4954,"MEAN_ANOMALY":78.5738,"EPHEMERIS_TYPE":0,"CLASSIFICATION_TYPE":"U","NORAD_CAT_ID":54864,"ELEMENT_SET_NO":999,"REV_AT_EPOCH":17703,"BSTAR":-5.0209848e-5,"MEAN_MOTION_DOT":-8.82e-6,"MEAN_MOTION_DDOT":0},{"OBJECT_NAME":"UNKNOWN","OBJECT_ID":"","EPOCH":"2026-02-26T02:14:50.940960","MEAN_MOTION":13.22662933,"ECCENTRICITY":0.0835036,"INCLINATION":65.8188,"RA_OF_ASC_NODE":317.7488,"ARG_OF_PERICENTER":355.8421,"MEAN_ANOMALY":3.5955,"EPHEMERIS_TYPE":0,"CLASSIFICATION_TYPE":"U","NORAD_CAT_ID":81329,"ELEMENT_SET_NO":999,"REV_AT_EPOCH":58804,"BSTAR":0.0009612,"MEAN_MOTION_DOT":2.7e-5,"MEAN_MOTION_DDOT":0}]
